STARLINK-30494          
1 57970U 23151G   26068.36049035 -.00001272  00000+0 -35691-4 0  9993
2 57970  43.0027 192.4566 0001155 241.5536 118.5200 15.28417441137406
STARLINK-33881          
1 63779U 25091E   26068.99030342  .00027733  00000+0  10132-2 0  9991
2 63779  43.0080  51.2276 0003460 294.3484  65.7007 15.27586979 48948
